[{"OBJECT_NAME":"STARLINK-6152","OBJECT_ID":"2023-090W","EPOCH":"2026-03-08T06:32:45.449664","MEAN_MOTION":15.02537813,"ECCENTRICITY":0.00012117,"INCLINATION":43.0034,"RA_OF_ASC_NODE":282.0542,"ARG_OF_PERICENTER":268.0332,"MEAN_ANOMALY":92.0371,"EPHEMERIS_TYPE":0,"CLASSIFICATION_TYPE":"U","NORAD_CAT_ID":57121,"ELEMENT_SET_NO":999,"REV_AT_EPOCH":15001,"BSTAR":5.5589352e-5,"MEAN_MOTION_DOT":5.47e-6,"MEAN_MOTION_DDOT":0},{"OBJECT_NAME":"RAPIDEYE 5","OBJECT_ID":"2008-040B","EPOCH":"2026-03-09T15:17:22.403904","MEAN_MOTION":15.02179038,"ECCENTRICITY":0.0014834,"INCLINATION":97.3944,"RA_OF_ASC_NODE":91.3825,"ARG_OF_PERICENTER":86.9831,"MEAN_ANOMALY":273.3091,"EPHEMERIS_TYPE":0,"CLASSIFICATION_TYPE":"U","NORAD_CAT_ID":33313,"ELEMENT_SET_NO":999,"REV_AT_EPOCH":95055,"BSTAR":0.00014028,"MEAN_MOTION_DOT":1.794e-5,"MEAN_MOTION_DDOT":0}]
